IRIDIUM 7 [-]           
1 24793U 97020B   24043.93676285  .00000780  00000+0  26672-3 0  9992
2 24793  86.3971  22.2519 0001957  83.2877 276.8542 14.35073955401561
IRIDIUM 5 [-]           
1 24795U 97020D   24043.77996178  .00007024  00000+0  68578-3 0  9991
2 24795  86.3940 308.1954 0127749  87.4243 274.1598 14.86214815412437
IRIDIUM 4 [-]           
1 24796U 97020E   24043.95415815  .00000757  00000+0  25410-3 0  9990
2 24796  86.3970  19.4493 0002224  82.9817 277.1633 14.35985546402092
IRIDIUM 914 [-]         
1 24836U 97030A   24043.90219657  .00000996  00000+0  31137-3 0  9995
2 24836  86.3933  29.5070 0003678  64.2844 295.8734 14.39819908536556
IRIDIUM 16 [-]          
1 24841U 97030F   24043.55508263  .00000996  00000+0  32515-3 0  9997
2 24841  86.3998  51.3129 0001214 157.6844 202.4406 14.37707479396744
IRIDIUM 911 [-]         
1 24842U 97030G   24043.95284197  .00001144  00000+0  31370-3 0  9993
2 24842  86.4424  50.3774 0012278 295.6136  64.3797 14.46288797404198
IRIDIUM 17 [-]          
1 24870U 97034B   24043.58405807  .00000811  00000+0  26831-3 0  9996
2 24870  86.3910  80.9553 0002817 128.0665 232.0787 14.36802457393112
IRIDIUM 920 [-]         
1 24871U 97034C   24043.56967651  .00000934  00000+0  28729-3 0  9999
2 24871  86.3927  61.3168 0009409 257.7596 102.2550 14.40525019395921
